[{"OBJECT_NAME":"KAZSTSAT","OBJECT_ID":"2018-099AB","EPOCH":"2026-03-09T14:51:18.118944","MEAN_MOTION":14.99620503,"ECCENTRICITY":0.0006528,"INCLINATION":97.4396,"RA_OF_ASC_NODE":105.0128,"ARG_OF_PERICENTER":11.1145,"MEAN_ANOMALY":349.0222,"EPHEMERIS_TYPE":0,"CLASSIFICATION_TYPE":"U","NORAD_CAT_ID":43783,"ELEMENT_SET_NO":999,"REV_AT_EPOCH":39638,"BSTAR":0.00011446,"MEAN_MOTION_DOT":1.354e-5,"MEAN_MOTION_DDOT":0},{"OBJECT_NAME":"STARLINK-3090","OBJECT_ID":"2021-082C","EPOCH":"2026-03-09T23:20:36.632544","MEAN_MOTION":14.98331604,"ECCENTRICITY":0.0002969,"INCLINATION":69.9979,"RA_OF_ASC_NODE":293.6149,"ARG_OF_PERICENTER":269.9157,"MEAN_ANOMALY":90.1661,"EPHEMERIS_TYPE":0,"CLASSIFICATION_TYPE":"U","NORAD_CAT_ID":49132,"ELEMENT_SET_NO":999,"REV_AT_EPOCH":24602,"BSTAR":-3.614228e-5,"MEAN_MOTION_DOT":-5.24e-6,"MEAN_MOTION_DDOT":0}]
